STARLINK-35201          
1 65664U 25211N   26048.08972236  .00007670  00000+0  53483-3 0  9990
2 65664  97.6022  93.7808 0001733  87.6363 272.5062 15.05675466 23944
STARLINK-35115          
1 65665U 25211P   26048.08694486  .00004817  00000+0  33775-3 0  9991
2 65665  97.6020  93.7850 0001185 123.3568 236.7773 15.05655242 23947
STARLINK-35181          
1 65666U 25211Q   26048.08417582  .00001404  00000+0  10150-3 0  9993
2 65666  97.6019  93.7881 0000757 136.0436 224.0851 15.05649821 23942
STARLINK-35361          
1 65667U 25211R   26048.08140338  .00006583  00000+0  46015-3 0  9998
2 65667  97.6029  93.7929 0001078 115.2632 244.8706 15.05638061 23944
STARLINK-35351          
1 65668U 25211S   26048.07864359  .00003704  00000+0  26066-3 0  9990
2 65668  97.6026  93.7961 0001446  88.1400 271.9992 15.05667329 23945
STARLINK-35353          
1 65669U 25211T   26048.07586928  .00004706  00000+0  33007-3 0  9990
2 65669  97.6022  93.7989 0000610 109.3076 250.8216 15.05658638 23947
STARLINK-35359          
1 65670U 25211U   26048.07311929  .00018725  00000+0  12977-2 0  9997
2 65670  97.6056  93.8088 0000619 118.8029 241.3260 15.05673761 23947
STARLINK-35194          
1 65671U 25211V   26048.06756742  .00007095  00000+0  49538-3 0  9995
2 65671  97.6013  93.8113 0001515  56.6463 303.4909 15.05656454 23947
STARLINK-35198          
1 65672U 25211W   26048.07034041 -.00000807  00000+0 -51736-4 0  9998
2 65672  97.6030  93.8072 0000568 157.6927 202.4325 15.05636770 23944
STARLINK-35177          
1 65673U 25211X   26048.06203252  .00004050  00000+0  28466-3 0  9995
2 65673  97.6027  93.8188 0002236  55.9842 304.1597 15.05655908 23944
STARLINK-35254          
1 65674U 25211Y   26048.05926618  .00007072  00000+0  49384-3 0  9992
2 65674  97.6037  93.8236 0001219  82.7214 277.4151 15.05652013 23943
STARLINK-34749          
1 65675U 25211Z   26047.59958969  .00003683  00000+0  25930-3 0  9990
2 65675  97.6032  93.3570 0001323  75.7990 284.3384 15.05651832 23879
STARLINK-35189          
1 65676U 25212A   26047.50683975  .00029602  00000+0  10075-2 0  9997
2 65676  53.1585  83.8378 0001200  81.7753 278.3384 15.30202748 23956
STARLINK-35222          
1 65677U 25212B   26048.11050223  .00026517  00000+0  90382-3 0  9992
2 65677  53.1580  81.2068 0001330  92.3277 267.7876 15.30215222 24100
STARLINK-35233          
1 65678U 25212C   26048.07790385  .00026168  00000+0  89224-3 0  9993
2 65678  53.1598  81.7106 0001382  99.3774 260.7383 15.30210265 24090
STARLINK-35205          
1 65679U 25212D   26047.61436810  .00018386  00000+0  63141-3 0  9996
2 65679  53.1591  83.7946 0001364  92.2012 267.9145 15.30197254 23967
STARLINK-35070          
1 65680U 25212E   26048.08836198  .00037100  00000+0  12586-2 0  9994
2 65680  53.1591  81.0649 0001137  59.0302 301.0810 15.30196712 24093
