[{"OBJECT_NAME":"STARLINK-35201","OBJECT_ID":"2025-211N","EPOCH":"2026-02-17T02:09:12.011904","MEAN_MOTION":15.05675466,"ECCENTRICITY":0.0001733,"INCLINATION":97.6022,"RA_OF_ASC_NODE":93.7808,"ARG_OF_PERICENTER":87.6363,"MEAN_ANOMALY":272.5062,"EPHEMERIS_TYPE":0,"CLASSIFICATION_TYPE":"U","NORAD_CAT_ID":65664,"ELEMENT_SET_NO":999,"REV_AT_EPOCH":2394,"BSTAR":0.00053483,"MEAN_MOTION_DOT":7.67e-5,"MEAN_MOTION_DDOT":0},{"OBJECT_NAME":"STARLINK-35115","OBJECT_ID":"2025-211P","EPOCH":"2026-02-17T02:05:12.035904","MEAN_MOTION":15.05655242,"ECCENTRICITY":0.0001185,"INCLINATION":97.602,"RA_OF_ASC_NODE":93.785,"ARG_OF_PERICENTER":123.3568,"MEAN_ANOMALY":236.7773,"EPHEMERIS_TYPE":0,"CLASSIFICATION_TYPE":"U","NORAD_CAT_ID":65665,"ELEMENT_SET_NO":999,"REV_AT_EPOCH":2394,"BSTAR":0.00033775,"MEAN_MOTION_DOT":4.817e-5,"MEAN_MOTION_DDOT":0},{"OBJECT_NAME":"STARLINK-35181","OBJECT_ID":"2025-211Q","EPOCH":"2026-02-17T02:01:12.790848","MEAN_MOTION":15.05649821,"ECCENTRICITY":7.57e-5,"INCLINATION":97.6019,"RA_OF_ASC_NODE":93.7881,"ARG_OF_PERICENTER":136.0436,"MEAN_ANOMALY":224.0851,"EPHEMERIS_TYPE":0,"CLASSIFICATION_TYPE":"U","NORAD_CAT_ID":65666,"ELEMENT_SET_NO":999,"REV_AT_EPOCH":2394,"BSTAR":0.0001015,"MEAN_MOTION_DOT":1.404e-5,"MEAN_MOTION_DDOT":0},{"OBJECT_NAME":"STARLINK-35361","OBJECT_ID":"2025-211R","EPOCH":"2026-02-17T01:57:13.252032","MEAN_MOTION":15.05638061,"ECCENTRICITY":0.0001078,"INCLINATION":97.6029,"RA_OF_ASC_NODE":93.7929,"ARG_OF_PERICENTER":115.2632,"MEAN_ANOMALY":244.8706,"EPHEMERIS_TYPE":0,"CLASSIFICATION_TYPE":"U","NORAD_CAT_ID":65667,"ELEMENT_SET_NO":999,"REV_AT_EPOCH":2394,"BSTAR":0.00046015,"MEAN_MOTION_DOT":6.583e-5,"MEAN_MOTION_DDOT":0},{"OBJECT_NAME":"STARLINK-35351","OBJECT_ID":"2025-211S","EPOCH":"2026-02-17T01:53:14.806176","MEAN_MOTION":15.05667329,"ECCENTRICITY":0.0001446,"INCLINATION":97.6026,"RA_OF_ASC_NODE":93.7961,"ARG_OF_PERICENTER":88.14,"MEAN_ANOMALY":271.9992,"EPHEMERIS_TYPE":0,"CLASSIFICATION_TYPE":"U","NORAD_CAT_ID":65668,"ELEMENT_SET_NO":999,"REV_AT_EPOCH":2394,"BSTAR":0.00026066,"MEAN_MOTION_DOT":3.704e-5,"MEAN_MOTION_DDOT":0},{"OBJECT_NAME":"STARLINK-35353","OBJECT_ID":"2025-211T","EPOCH":"2026-02-17T01:49:15.105792","MEAN_MOTION":15.05658638,"ECCENTRICITY":6.1e-5,"INCLINATION":97.6022,"RA_OF_ASC_NODE":93.7989,"ARG_OF_PERICENTER":109.3076,"MEAN_ANOMALY":250.8216,"EPHEMERIS_TYPE":0,"CLASSIFICATION_TYPE":"U","NORAD_CAT_ID":65669,"ELEMENT_SET_NO":999,"REV_AT_EPOCH":2394,"BSTAR":0.00033007,"MEAN_MOTION_DOT":4.706e-5,"MEAN_MOTION_DDOT":0},{"OBJECT_NAME":"STARLINK-35359","OBJECT_ID":"2025-211U","EPOCH":"2026-02-17T01:45:17.506656","MEAN_MOTION":15.05673761,"ECCENTRICITY":6.19e-5,"INCLINATION":97.6056,"RA_OF_ASC_NODE":93.8088,"ARG_OF_PERICENTER":118.8029,"MEAN_ANOMALY":241.326,"EPHEMERIS_TYPE":0,"CLASSIFICATION_TYPE":"U","NORAD_CAT_ID":65670,"ELEMENT_SET_NO":999,"REV_AT_EPOCH":2394,"BSTAR":0.0012977,"MEAN_MOTION_DOT":0.00018725,"MEAN_MOTION_DDOT":0},{"OBJECT_NAME":"STARLINK-35194","OBJECT_ID":"2025-211V","EPOCH":"2026-02-17T01:37:17.825088","MEAN_MOTION":15.05656454,"ECCENTRICITY":0.0001515,"INCLINATION":97.6013,"RA_OF_ASC_NODE":93.8113,"ARG_OF_PERICENTER":56.6463,"MEAN_ANOMALY":303.4909,"EPHEMERIS_TYPE":0,"CLASSIFICATION_TYPE":"U","NORAD_CAT_ID":65671,"ELEMENT_SET_NO":999,"REV_AT_EPOCH":2394,"BSTAR":0.00049538,"MEAN_MOTION_DOT":7.095e-5,"MEAN_MOTION_DDOT":0},{"OBJECT_NAME":"STARLINK-35198","OBJECT_ID":"2025-211W","EPOCH":"2026-02-17T01:41:17.411424","MEAN_MOTION":15.0563677,"ECCENTRICITY":5.68e-5,"INCLINATION":97.603,"RA_OF_ASC_NODE":93.8072,"ARG_OF_PERICENTER":157.6927,"MEAN_ANOMALY":202.4325,"EPHEMERIS_TYPE":0,"CLASSIFICATION_TYPE":"U","NORAD_CAT_ID":65672,"ELEMENT_SET_NO":999,"REV_AT_EPOCH":2394,"BSTAR":-5.1736e-5,"MEAN_MOTION_DOT":-8.07e-6,"MEAN_MOTION_DDOT":0},{"OBJECT_NAME":"STARLINK-35177","OBJECT_ID":"2025-211X","EPOCH":"2026-02-17T01:29:19.609728","MEAN_MOTION":15.05655908,"ECCENTRICITY":0.0002236,"INCLINATION":97.6027,"RA_OF_ASC_NODE":93.8188,"ARG_OF_PERICENTER":55.9842,"MEAN_ANOMALY":304.1597,"EPHEMERIS_TYPE":0,"CLASSIFICATION_TYPE":"U","NORAD_CAT_ID":65673,"ELEMENT_SET_NO":999,"REV_AT_EPOCH":2394,"BSTAR":0.00028466,"MEAN_MOTION_DOT":4.05e-5,"MEAN_MOTION_DDOT":0},{"OBJECT_NAME":"STARLINK-35254","OBJECT_ID":"2025-211Y","EPOCH":"2026-02-17T01:25:20.597952","MEAN_MOTION":15.05652013,"ECCENTRICITY":0.0001219,"INCLINATION":97.6037,"RA_OF_ASC_NODE":93.8236,"ARG_OF_PERICENTER":82.7214,"MEAN_ANOMALY":277.4151,"EPHEMERIS_TYPE":0,"CLASSIFICATION_TYPE":"U","NORAD_CAT_ID":65674,"ELEMENT_SET_NO":999,"REV_AT_EPOCH":2394,"BSTAR":0.00049384,"MEAN_MOTION_DOT":7.072e-5,"MEAN_MOTION_DDOT":0},{"OBJECT_NAME":"STARLINK-34749","OBJECT_ID":"2025-211Z","EPOCH":"2026-02-16T14:23:24.549216","MEAN_MOTION":15.05651832,"ECCENTRICITY":0.00013234,"INCLINATION":97.6032,"RA_OF_ASC_NODE":93.357,"ARG_OF_PERICENTER":75.799,"MEAN_ANOMALY":284.3384,"EPHEMERIS_TYPE":0,"CLASSIFICATION_TYPE":"U","NORAD_CAT_ID":65675,"ELEMENT_SET_NO":999,"REV_AT_EPOCH":2387,"BSTAR":0.00025929662,"MEAN_MOTION_DOT":3.683e-5,"MEAN_MOTION_DDOT":0},{"OBJECT_NAME":"STARLINK-35189","OBJECT_ID":"2025-212A","EPOCH":"2026-02-16T12:09:50.954400","MEAN_MOTION":15.30202748,"ECCENTRICITY":0.00012,"INCLINATION":53.1585,"RA_OF_ASC_NODE":83.8378,"ARG_OF_PERICENTER":81.7753,"MEAN_ANOMALY":278.3384,"EPHEMERIS_TYPE":0,"CLASSIFICATION_TYPE":"U","NORAD_CAT_ID":65676,"ELEMENT_SET_NO":999,"REV_AT_EPOCH":2395,"BSTAR":0.0010075,"MEAN_MOTION_DOT":0.00029602,"MEAN_MOTION_DDOT":0},{"OBJECT_NAME":"STARLINK-35222","OBJECT_ID":"2025-212B","EPOCH":"2026-02-17T02:39:07.392672","MEAN_MOTION":15.30215222,"ECCENTRICITY":0.000133,"INCLINATION":53.158,"RA_OF_ASC_NODE":81.2068,"ARG_OF_PERICENTER":92.3277,"MEAN_ANOMALY":267.7876,"EPHEMERIS_TYPE":0,"CLASSIFICATION_TYPE":"U","NORAD_CAT_ID":65677,"ELEMENT_SET_NO":999,"REV_AT_EPOCH":2410,"BSTAR":0.00090382,"MEAN_MOTION_DOT":0.00026517,"MEAN_MOTION_DDOT":0},{"OBJECT_NAME":"STARLINK-35233","OBJECT_ID":"2025-212C","EPOCH":"2026-02-17T01:52:10.892640","MEAN_MOTION":15.30210265,"ECCENTRICITY":0.0001382,"INCLINATION":53.1598,"RA_OF_ASC_NODE":81.7106,"ARG_OF_PERICENTER":99.3774,"MEAN_ANOMALY":260.7383,"EPHEMERIS_TYPE":0,"CLASSIFICATION_TYPE":"U","NORAD_CAT_ID":65678,"ELEMENT_SET_NO":999,"REV_AT_EPOCH":2409,"BSTAR":0.00089224,"MEAN_MOTION_DOT":0.00026168,"MEAN_MOTION_DDOT":0},{"OBJECT_NAME":"STARLINK-35205","OBJECT_ID":"2025-212D","EPOCH":"2026-02-16T14:44:41.403840","MEAN_MOTION":15.30197254,"ECCENTRICITY":0.00013647,"INCLINATION":53.1591,"RA_OF_ASC_NODE":83.7946,"ARG_OF_PERICENTER":92.2012,"MEAN_ANOMALY":267.9145,"EPHEMERIS_TYPE":0,"CLASSIFICATION_TYPE":"U","NORAD_CAT_ID":65679,"ELEMENT_SET_NO":999,"REV_AT_EPOCH":2396,"BSTAR":0.00063140857,"MEAN_MOTION_DOT":0.00018386,"MEAN_MOTION_DDOT":0},{"OBJECT_NAME":"STARLINK-35070","OBJECT_ID":"2025-212E","EPOCH":"2026-02-17T02:07:14.475072","MEAN_MOTION":15.30196712,"ECCENTRICITY":0.0001137,"INCLINATION":53.1591,"RA_OF_ASC_NODE":81.0649,"ARG_OF_PERICENTER":59.0302,"MEAN_ANOMALY":301.081,"EPHEMERIS_TYPE":0,"CLASSIFICATION_TYPE":"U","NORAD_CAT_ID":65680,"ELEMENT_SET_NO":999,"REV_AT_EPOCH":2409,"BSTAR":0.0012586,"MEAN_MOTION_DOT":0.000371,"MEAN_MOTION_DDOT":0}]
